{"1":{"name_en":"Spain","name_ar":"إسبانيا","polling_stations":[{"kalam":"1","location_id":1,"districts_ids":[0]}]},"2":{"name_en":"Switzerland","name_ar":"سويسرا","polling_stations":[{"kalam":"1","location_id":2,"districts_ids":[1,2,3,4,5,6,7,8]},{"kalam":"2","location_id":2,"districts_ids":[9,10,11,12,13,14,15,16,17,18,19,20,21,22,23,24,25]}]},"3":{"name_en":"The Netherlands","name_ar":"هولندا","polling_stations":[{"kalam":"1","location_id":3,"districts_ids":[0]}]},"4":{"name_en":"Romania","name_ar":"رومانيا","polling_stations":[{"kalam":"1","location_id":4,"districts_ids":[0]}]},"5":{"name_en":"UK and Northern Ireland","name_ar":"بريطانيا وآيرلندا الشمالية","polling_stations":[{"kalam":"1","location_id":5,"districts_ids":[12,14,15,18,20,23,24]},{"kalam":"2","location_id":5,"districts_ids":[1,2,16,21,22]},{"kalam":"3","location_id":5,"districts_ids":[19,25,10,17,13,11,9,8,4]},{"kalam":"4","location_id":5,"districts_ids":[6,5,3,7]}]},"6":{"name_en":"Greece","name_ar":"اليونان","polling_stations":[{"kalam":"1","location_id":6,"districts_ids":[0]}]},"7":{"name_en":"Belgium","name_ar":"بلجيكا","polling_stations":[{"kalam":"1","location_id":7,"districts_ids":[1,2,24,15,18,20,14,12,23,8,6]},{"kalam":"2","location_id":7,"districts_ids":[16,21,22,10,19,25]},{"kalam":"3","location_id":7,"districts_ids":[17,13,11,9,4,5,3,7]}]},"8":{"name_en":"Italy","name_ar":"إيطاليا","polling_stations":[{"kalam":"1","location_id":8,"districts_ids":[0]},{"kalam":"2","location_id":9,"districts_ids":[0]}]},"9":{"name_en":"Sweden","name_ar":"السويد","polling_stations":[{"kalam":"1","location_id":10,"districts_ids":[1,2,24,15,18,20,14,12,3,7,23,5]},{"kalam":"2","location_id":10,"districts_ids":[16,21,22,19,25,26,17,6,8,13,11,9,4]},{"kalam":"3","location_id":11,"districts_ids":[1,2,16,22,3,7]},{"kalam":"4","location_id":11,"districts_ids":[15,18,20,14,12,23,19,25,10,11,9,6,8,4,5]},{"kalam":"5","location_id":12,"districts_ids":[1,2,6,8,4,5,3,7,24,15]},{"kalam":"6","location_id":12,"districts_ids":[18,20,14,12,7,23,16,21,22,19,25,17,9]}]},"10":{"name_en":"Denmark","name_ar":"الدانمارك","polling_stations":[{"kalam":"1","location_id":13,"districts_ids":[0]}]},"11":{"name_en":"Germany","name_ar":"ألمانيا","polling_stations":[{"kalam":"1","location_id":14,"districts_ids":[2]},{"kalam":"2","location_id":14,"districts_ids":[1,2]},{"kalam":"3","location_id":14,"districts_ids":[18]},{"kalam":"4","location_id":14,"districts_ids":[18]},{"kalam":"5","location_id":14,"districts_ids":[20]},{"kalam":"6","location_id":14,"districts_ids":[14,12]},{"kalam":"7","location_id":14,"districts_ids":[21,23]},{"kalam":"8","location_id":14,"districts_ids":[24,15,16,22,19,25,26,10,17,13,11,9,6,8,4,5,3,7]},{"kalam":"9","location_id":15,"districts_ids":[1,2,24,15,20,17,11,9,6,8,4,5,3,7]},{"kalam":"10","location_id":15,"districts_ids":[18,14,12,23,16,26,10,21,22,19,25]},{"kalam":"11","location_id":16,"districts_ids":[1,2,3,7]},{"kalam":"12","location_id":16,"districts_ids":[24,15,18,23]},{"kalam":"13","location_id":16,"districts_ids":[20,14,12]},{"kalam":"14","location_id":16,"districts_ids":[22,16,21,19,25,26,10,17,11,9,6,8,4,5]},{"kalam":"15","location_id":17,"districts_ids":[1,2,24,15,18,20]},{"kalam":"16","location_id":17,"districts_ids":[14,23,12,16,21,22,19,25,26,10,6,8,4,5,3]},{"kalam":"17","location_id":18,"districts_ids":[1,2,15,18,4,20,5,3,7,6,8]},{"kalam":"18","location_id":18,"districts_ids":[11,26,10,19,25,14,12,23,22]},{"kalam":"19","location_id":19,"districts_ids":[0]},{"kalam":"20","location_id":20,"districts_ids":[0]},{"kalam":"21","location_id":21,"districts_ids":[0]}]},"12":{"name_en":"France","name_ar":"فرنسا","polling_stations":[{"kalam":"1","location_id":22,"districts_ids":[0]},{"kalam":"2","location_id":23,"districts_ids":[0]},{"kalam":"3","location_id":24,"districts_ids":[0]},{"kalam":"4","location_id":25,"districts_ids":[24,15]},{"kalam":"5","location_id":25,"districts_ids":[18,23,12,14]},{"kalam":"6","location_id":26,"districts_ids":[19,26,10,25]},{"kalam":"7","location_id":26,"districts_ids":[11,9,13,17]},{"kalam":"8","location_id":27,"districts_ids":[16]},{"kalam":"9","location_id":27,"districts_ids":[21,22]},{"kalam":"10","location_id":28,"districts_ids":[0]},{"kalam":"11","location_id":29,"districts_ids":[16,21,22,1,2,19,25,26,10,9,11,13,17]},{"kalam":"12","location_id":29,"districts_ids":[15,24,18,12,14,23,6,8,4,3,5,7]},{"kalam":"13","location_id":30,"districts_ids":[8]},{"kalam":"14","location_id":30,"districts_ids":[6]},{"kalam":"15","location_id":30,"districts_ids":[4]},{"kalam":"16","location_id":31,"districts_ids":[5]},{"kalam":"17","location_id":31,"districts_ids":[7]},{"kalam":"18","location_id":31,"districts_ids":[3]},{"kalam":"19","location_id":32,"districts_ids":[0]},{"kalam":"20","location_id":33,"districts_ids":[0]},{"kalam":"21","location_id":34,"districts_ids":[0]},{"kalam":"22","location_id":35,"districts_ids":[0]},{"kalam":"23","location_id":36,"districts_ids":[1]},{"kalam":"24","location_id":36,"districts_ids":[2]},{"kalam":"25","location_id":37,"districts_ids":[0]},{"kalam":"26","location_id":38,"districts_ids":[0]},{"kalam":"27","location_id":39,"districts_ids":[0]},{"kalam":"28","location_id":40,"districts_ids":[0]}]},"13":{"name_en":"Ivory Cost","name_ar":"الكوت ديفوار","polling_stations":[{"kalam":"1","location_id":41,"districts_ids":[18]},{"kalam":"2","location_id":41,"districts_ids":[18]},{"kalam":"3","location_id":41,"districts_ids":[18]},{"kalam":"4","location_id":41,"districts_ids":[1,2,16,21,22,19,25,6,8,14,12]},{"kalam":"5","location_id":41,"districts_ids":[20,17,13,11,9,4,5,3,7,24,15,23]},{"kalam":"6","location_id":42,"districts_ids":[0]}]},"14":{"name_en":"Nigeria","name_ar":"نيجيريا","polling_stations":[{"kalam":"1","location_id":43,"districts_ids":[0]},{"kalam":"2","location_id":44,"districts_ids":[0]},{"kalam":"3","location_id":45,"districts_ids":[0]}]},"15":{"name_en":"Benin","name_ar":"بنين","polling_stations":[{"kalam":"1","location_id":46,"districts_ids":[0]}]},"16":{"name_en":"Democratic Republic of the Congo","name_ar":"جمهورية الكونغو الديمقراطية - أفريقيا","polling_stations":[{"kalam":"1","location_id":47,"districts_ids":[0]}]},"17":{"name_en":"Ghana","name_ar":"غانا","polling_stations":[{"kalam":"1","location_id":48,"districts_ids":[0]}]},"18":{"name_en":"South Africa","name_ar":"جنوب أفريقيا","polling_stations":[{"kalam":"1","location_id":49,"districts_ids":[0]}]},"19":{"name_en":"Gabon","name_ar":"الغابون","polling_stations":[{"kalam":"1","location_id":50,"districts_ids":[0]}]},"20":{"name_en":"Guinea","name_ar":"غينيا","polling_stations":[{"kalam":"1","location_id":51,"districts_ids":[0]}]},"21":{"name_en":"Liberia","name_ar":"ليبيريا","polling_stations":[{"kalam":"1","location_id":52,"districts_ids":[0]}]},"22":{"name_en":"Sierra Leone","name_ar":"سيراليون","polling_stations":[{"kalam":"1","location_id":53,"districts_ids":[0]}]},"23":{"name_en":"Egypt","name_ar":"مصر","polling_stations":[{"kalam":"1","location_id":54,"districts_ids":[0]}]},"24":{"name_en":"Senegal","name_ar":"السنغال","polling_stations":[{"kalam":"1","location_id":55,"districts_ids":[0]}]},"25":{"name_en":"Brazil","name_ar":"البرازيل","polling_stations":[{"kalam":"1","location_id":56,"districts_ids":[0]},{"kalam":"2","location_id":57,"districts_ids":[21]},{"kalam":"3","location_id":57,"districts_ids":[21]},{"kalam":"4","location_id":57,"districts_ids":[1,2,24,15,18,20,14,12,23,16]},{"kalam":"5","location_id":57,"districts_ids":[22,19,25,26,10,17,13,11,9,6,8,4,5,3,7]},{"kalam":"6","location_id":58,"districts_ids":[0]}]},"26":{"name_en":"Paraguay","name_ar":"باراغواي","polling_stations":[{"kalam":"1","location_id":59,"districts_ids":[0]},{"kalam":"2","location_id":60,"districts_ids":[23]},{"kalam":"3","location_id":60,"districts_ids":[4,12,5,14,2,6,15,16,18,7,19,20,21,22,8,25]}]},"27":{"name_en":"Colombia","name_ar":"كولومبيا","polling_stations":[{"kalam":"1","location_id":61,"districts_ids":[0]}]},"28":{"name_en":"Argentina","name_ar":"الأرجنتين","polling_stations":[{"kalam":"1","location_id":62,"districts_ids":[0]}]},"29":{"name_en":"Venezuela","name_ar":"فنزويلا","polling_stations":[{"kalam":"1","location_id":63,"districts_ids":[1,2,15,18,14,23,6,8,4,5,3,7,19,25,10]},{"kalam":"2","location_id":63,"districts_ids":[21]},{"kalam":"3","location_id":63,"districts_ids":[21,22,16,13,11,9]},{"kalam":"4","location_id":63,"districts_ids":[17]}]},"30":{"name_en":"Mexico","name_ar":"المكسيك","polling_stations":[{"kalam":"1","location_id":64,"districts_ids":[0]}]},"31":{"name_en":"Guadeloupe","name_ar":"غوادلوب","polling_stations":[{"kalam":"1","location_id":65,"districts_ids":[0]}]},"32":{"name_en":"Saudi Arabia","name_ar":"السعودية","polling_stations":[{"kalam":"1","location_id":66,"districts_ids":[1,2,5]},{"kalam":"2","location_id":66,"districts_ids":[24,15,18,20,14,12,21,23]},{"kalam":"3","location_id":66,"districts_ids":[16,19,25,26,10]},{"kalam":"4","location_id":66,"districts_ids":[11,17,13,9,6,8,4]},{"kalam":"5","location_id":66,"districts_ids":[3,7,22]},{"kalam":"6","location_id":67,"districts_ids":[1,2,24,20,15,18]},{"kalam":"7","location_id":67,"districts_ids":[14,12,23,16,21,22,6,8,4,5,3,7]},{"kalam":"8","location_id":67,"districts_ids":[19,25,26,10,17,13,11,9]}]},"33":{"name_en":"UAE","name_ar":"الإمارات العربية المتحدة","polling_stations":[{"kalam":"1","location_id":68,"districts_ids":[1,2,24,15,18,20,14,12,23,22,21,16]},{"kalam":"2","location_id":68,"districts_ids":[19,25,26,10,17,13,11,9,6,8]},{"kalam":"3","location_id":68,"districts_ids":[5,3,7,4]},{"kalam":"4","location_id":69,"districts_ids":[1,24,15,12]},{"kalam":"5","location_id":69,"districts_ids":[2]},{"kalam":"6","location_id":69,"districts_ids":[16,21,22]},{"kalam":"7","location_id":69,"districts_ids":[19,25,26,10]},{"kalam":"8","location_id":69,"districts_ids":[17,13,11,9]},{"kalam":"9","location_id":69,"districts_ids":[23,6,8]},{"kalam":"10","location_id":69,"districts_ids":[4]},{"kalam":"11","location_id":69,"districts_ids":[5]},{"kalam":"12","location_id":69,"districts_ids":[14,3]},{"kalam":"13","location_id":69,"districts_ids":[18,24,7]}]},"34":{"name_en":"Armenia","name_ar":"أرمينيا","polling_stations":[{"kalam":"1","location_id":70,"districts_ids":[0]}]},"35":{"name_en":"Oman","name_ar":"عمان","polling_stations":[{"kalam":"1","location_id":71,"districts_ids":[0]}]},"36":{"name_en":"Kuwait","name_ar":"الكويت","polling_stations":[{"kalam":"1","location_id":72,"districts_ids":[6,8,4,5]},{"kalam":"2","location_id":72,"districts_ids":[3,7]},{"kalam":"3","location_id":72,"districts_ids":[16,21,22,19,25,17,13,11,9]},{"kalam":"4","location_id":72,"districts_ids":[1,2,24,15,26,10]}]},"37":{"name_en":"Qatar","name_ar":"قطر","polling_stations":[{"kalam":"1","location_id":73,"districts_ids":[1,2,15,18,14,12,23,24,20]},{"kalam":"2","location_id":73,"districts_ids":[16,21,22,19,4]},{"kalam":"3","location_id":73,"districts_ids":[17,13,11,9,6,8,25,26,10]},{"kalam":"4","location_id":73,"districts_ids":[5,3,7]}]},"38":{"name_en":"Australia","name_ar":"أستراليا","polling_stations":[{"kalam":"1","location_id":74,"districts_ids":[0]},{"kalam":"2","location_id":75,"districts_ids":[0]},{"kalam":"3","location_id":76,"districts_ids":[0]},{"kalam":"4","location_id":77,"districts_ids":[1,2,24,20,15,18,14,12,23,16,21,22]},{"kalam":"5","location_id":77,"districts_ids":[19]},{"kalam":"6","location_id":77,"districts_ids":[19]},{"kalam":"7","location_id":77,"districts_ids":[25,26,10,11]},{"kalam":"8","location_id":77,"districts_ids":[17,13]},{"kalam":"9","location_id":77,"districts_ids":[9,6,8,4,5,3,7]},{"kalam":"10","location_id":78,"districts_ids":[9]},{"kalam":"11","location_id":78,"districts_ids":[9]},{"kalam":"12","location_id":78,"districts_ids":[14,6,8]},{"kalam":"13","location_id":78,"districts_ids":[16,4]},{"kalam":"14","location_id":78,"districts_ids":[1,2,5,7]},{"kalam":"15","location_id":79,"districts_ids":[17]},{"kalam":"16","location_id":79,"districts_ids":[17]},{"kalam":"17","location_id":79,"districts_ids":[17]},{"kalam":"18","location_id":79,"districts_ids":[17]},{"kalam":"19","location_id":79,"districts_ids":[17]},{"kalam":"20","location_id":80,"districts_ids":[13]},{"kalam":"21","location_id":80,"districts_ids":[13]},{"kalam":"22","location_id":80,"districts_ids":[13]},{"kalam":"23","location_id":81,"districts_ids":[25]},{"kalam":"24","location_id":81,"districts_ids":[25]},{"kalam":"25","location_id":82,"districts_ids":[21,22]},{"kalam":"26","location_id":83,"districts_ids":[26]},{"kalam":"27","location_id":83,"districts_ids":[26]},{"kalam":"28","location_id":83,"districts_ids":[10]},{"kalam":"29","location_id":84,"districts_ids":[11]},{"kalam":"30","location_id":84,"districts_ids":[19]},{"kalam":"31","location_id":85,"districts_ids":[24,15,18,20,12,23]}]},"39":{"name_en":"Canada","name_ar":"كندا","polling_stations":[{"kalam":"1","location_id":86,"districts_ids":[1,2,24,15,18,14,12,23]},{"kalam":"2","location_id":86,"districts_ids":[3,21]},{"kalam":"3","location_id":86,"districts_ids":[16,7,22]},{"kalam":"4","location_id":86,"districts_ids":[19,25,26,17,13,11,9,6,8,4]},{"kalam":"5","location_id":87,"districts_ids":[1,2,18]},{"kalam":"6","location_id":87,"districts_ids":[14,23,22,19,12,21,16,26,10]},{"kalam":"7","location_id":87,"districts_ids":[17,13,11,9,6,8,4,5]},{"kalam":"8","location_id":87,"districts_ids":[3,7,24,15]},{"kalam":"9","location_id":88,"districts_ids":[0]},{"kalam":"10","location_id":88,"districts_ids":[0]},{"kalam":"11","location_id":89,"districts_ids":[0]},{"kalam":"12","location_id":90,"districts_ids":[0]},{"kalam":"13","location_id":91,"districts_ids":[0]},{"kalam":"14","location_id":92,"districts_ids":[0]},{"kalam":"15","location_id":93,"districts_ids":[1]},{"kalam":"16","location_id":93,"districts_ids":[2]},{"kalam":"17","location_id":93,"districts_ids":[4]},{"kalam":"18","location_id":93,"districts_ids":[4]},{"kalam":"19","location_id":93,"districts_ids":[9,6,8]},{"kalam":"20","location_id":93,"districts_ids":[19]},{"kalam":"21","location_id":93,"districts_ids":[5]},{"kalam":"22","location_id":93,"districts_ids":[24,15,20]},{"kalam":"23","location_id":93,"districts_ids":[12,18,7]},{"kalam":"24","location_id":93,"districts_ids":[14,23,22]},{"kalam":"25","location_id":93,"districts_ids":[25,26,10,17,13,11]},{"kalam":"26","location_id":93,"districts_ids":[21]},{"kalam":"27","location_id":93,"districts_ids":[3]},{"kalam":"28","location_id":93,"districts_ids":[3]},{"kalam":"29","location_id":93,"districts_ids":[16]},{"kalam":"30","location_id":93,"districts_ids":[16]}]},"40":{"name_en":"USA","name_ar":"الولايات المتحدة الأمريكية","polling_stations":[{"kalam":"1","location_id":94,"districts_ids":[0]},{"kalam":"2","location_id":94,"districts_ids":[0]},{"kalam":"3","location_id":95,"districts_ids":[0]},{"kalam":"4","location_id":95,"districts_ids":[0]},{"kalam":"5","location_id":96,"districts_ids":[0]},{"kalam":"6","location_id":97,"districts_ids":[0]},{"kalam":"7","location_id":98,"districts_ids":[0]},{"kalam":"8","location_id":99,"districts_ids":[0]},{"kalam":"9","location_id":100,"districts_ids":[0]},{"kalam":"10","location_id":101,"districts_ids":[1,2,24,20,15,18,14,12,23,21,16,22,5,3,7]},{"kalam":"11","location_id":101,"districts_ids":[19,25,17,13,11,9,6,8,4]},{"kalam":"12","location_id":102,"districts_ids":[1,2,24,20,15,18,14,12,23,21,16,22,25,26,10,19]},{"kalam":"13","location_id":102,"districts_ids":[17,13,11,9]},{"kalam":"14","location_id":102,"districts_ids":[6,8,4,5,3,7]},{"kalam":"15","location_id":103,"districts_ids":[0]},{"kalam":"16","location_id":104,"districts_ids":[0]},{"kalam":"17","location_id":105,"districts_ids":[0]},{"kalam":"18","location_id":106,"districts_ids":[1,2,8,24,25]},{"kalam":"19","location_id":106,"districts_ids":[9,3,11,4,13,6,17,23]},{"kalam":"20","location_id":106,"districts_ids":[26,10,5,14,15,16,18,7,19,20]},{"kalam":"21","location_id":107,"districts_ids":[0]},{"kalam":"22","location_id":108,"districts_ids":[0]},{"kalam":"23","location_id":109,"districts_ids":[0]},{"kalam":"24","location_id":110,"districts_ids":[0]},{"kalam":"25","location_id":111,"districts_ids":[0]},{"kalam":"26","location_id":111,"districts_ids":[0]},{"kalam":"27","location_id":112,"districts_ids":[0]},{"kalam":"28","location_id":113,"districts_ids":[0]},{"kalam":"29","location_id":114,"districts_ids":[0]},{"kalam":"30","location_id":115,"districts_ids":[0]},{"kalam":"31","location_id":116,"districts_ids":[0]}]}}